STARLINK-35131          
1 66075U 25235T   25308.58336806 -.01925361  00000+0 -17832-1 0  9998
2 66075  53.1594 109.8456 0001100  89.9091  76.3328 15.69840941  3744
STARLINK-34801          
1 66076U 25235U   25308.58336806 -.01809980  00000+0 -17049-1 0  9997
2 66076  53.1588 109.8539 0001339  93.3184  69.1419 15.69767828  3749
STARLINK-35129          
1 66077U 25235V   25308.58336806 -.01922850  00000+0 -17805-1 0  9990
2 66077  53.1590 109.8509 0001261  81.0249  83.2975 15.69840914  3742
STARLINK-35116          
1 66078U 25235W   25308.58336806 -.01923878  00000+0 -17817-1 0  9995
2 66078  53.1593 109.8373 0001162  84.1563  85.9185 15.69840364  3749
STARLINK-35402          
1 66079U 25235X   25308.58336806 -.01920075  00000+0 -17778-1 0  9998
2 66079  53.1592 109.8340 0001185  83.1631  88.8285 15.69838238  3743
STARLINK-35325          
1 66080U 25235Y   25308.58336806 -.01924817  00000+0 -17826-1 0  9992
2 66080  53.1586 109.8412 0001180  84.5525  83.6061 15.69840511  3742
STARLINK-35403          
1 66081U 25235Z   25308.58336806 -.01917391  00000+0 -17753-1 0  9991
2 66081  53.1595 109.8269 0001022  87.4013  88.4253 15.69835864  3743
STARLINK-35011          
1 66082U 25235AA  25308.58336806 -.01923857  00000+0 -17816-1 0  9996
2 66082  53.1596 109.8292 0001160  83.3775  90.5295 15.69841187  3749
STARLINK-35291          
1 66083U 25235AB  25308.58336806 -.01920588  00000+0 -17786-1 0  9991
2 66083  53.1595 109.8219 0001007  87.6777  90.0650 15.69837498  3691
STARLINK-35379          
1 66084U 25235AC  25308.58336806 -.01925533  00000+0 -17834-1 0  9991
2 66084  53.1587 109.8173 0001095  84.9714  94.6879 15.69840875  3742
STARLINK-35370          
1 66085U 25235AD  25308.58336806 -.01919631  00000+0 -17776-1 0  9999
2 66085  53.1595 109.8129 0001025  88.4654  93.1116 15.69837169  3692
STARLINK-35596          
1 66086U 25236A   25308.58336806  .00034712  00000+0  24059-3 0  9990
2 66086  53.1572 329.5554 0001298  76.1800  24.5364 15.74163029  3742
