CCSDS_OMM_VERS = 2.0
CREATION_DATE  = 
ORIGINATOR     = 

OBJECT_NAME    = STARLINK-35131
OBJECT_ID      = 2025-235T
CENTER_NAME    = EARTH
REF_FRAME      = TEME
TIME_SYSTEM    = UTC
MEAN_ELEMENT_THEORY = SGP/SGP4

EPOCH          = 2025-11-04T14:00:03.000384
MEAN_MOTION    = 15.69840941
ECCENTRICITY   = .00011001
INCLINATION    = 53.1594
RA_OF_ASC_NODE = 109.8456
ARG_OF_PERICENTER = 89.9091
MEAN_ANOMALY   = 76.3328

EPHEMERIS_TYPE = 0
CLASSIFICATION_TYPE = U
NORAD_CAT_ID   = 66075
ELEMENT_SET_NO = 999
REV_AT_EPOCH   = 374
BSTAR          = -.17832331E-1
MEAN_MOTION_DOT = -.1925361E-1
MEAN_MOTION_DDOT = 0

CCSDS_OMM_VERS = 2.0
CREATION_DATE  = 
ORIGINATOR     = 

OBJECT_NAME    = STARLINK-34801
OBJECT_ID      = 2025-235U
CENTER_NAME    = EARTH
REF_FRAME      = TEME
TIME_SYSTEM    = UTC
MEAN_ELEMENT_THEORY = SGP/SGP4

EPOCH          = 2025-11-04T14:00:03.000384
MEAN_MOTION    = 15.69767828
ECCENTRICITY   = .00013392
INCLINATION    = 53.1588
RA_OF_ASC_NODE = 109.8539
ARG_OF_PERICENTER = 93.3184
MEAN_ANOMALY   = 69.1419

EPHEMERIS_TYPE = 0
CLASSIFICATION_TYPE = U
NORAD_CAT_ID   = 66076
ELEMENT_SET_NO = 999
REV_AT_EPOCH   = 374
BSTAR          = -.17049341E-1
MEAN_MOTION_DOT = -.180998E-1
MEAN_MOTION_DDOT = 0

CCSDS_OMM_VERS = 2.0
CREATION_DATE  = 
ORIGINATOR     = 

OBJECT_NAME    = STARLINK-35129
OBJECT_ID      = 2025-235V
CENTER_NAME    = EARTH
REF_FRAME      = TEME
TIME_SYSTEM    = UTC
MEAN_ELEMENT_THEORY = SGP/SGP4

EPOCH          = 2025-11-04T14:00:03.000384
MEAN_MOTION    = 15.69840914
ECCENTRICITY   = .00012612
INCLINATION    = 53.1590
RA_OF_ASC_NODE = 109.8509
ARG_OF_PERICENTER = 81.0249
MEAN_ANOMALY   = 83.2975

EPHEMERIS_TYPE = 0
CLASSIFICATION_TYPE = U
NORAD_CAT_ID   = 66077
ELEMENT_SET_NO = 999
REV_AT_EPOCH   = 374
BSTAR          = -.17804851E-1
MEAN_MOTION_DOT = -.192285E-1
MEAN_MOTION_DDOT = 0

CCSDS_OMM_VERS = 2.0
CREATION_DATE  = 
ORIGINATOR     = 

OBJECT_NAME    = STARLINK-35116
OBJECT_ID      = 2025-235W
CENTER_NAME    = EARTH
REF_FRAME      = TEME
TIME_SYSTEM    = UTC
MEAN_ELEMENT_THEORY = SGP/SGP4

EPOCH          = 2025-11-04T14:00:03.000384
MEAN_MOTION    = 15.69840364
ECCENTRICITY   = .00011627
INCLINATION    = 53.1593
RA_OF_ASC_NODE = 109.8373
ARG_OF_PERICENTER = 84.1563
MEAN_ANOMALY   = 85.9185

EPHEMERIS_TYPE = 0
CLASSIFICATION_TYPE = U
NORAD_CAT_ID   = 66078
ELEMENT_SET_NO = 999
REV_AT_EPOCH   = 374
BSTAR          = -.17816774E-1
MEAN_MOTION_DOT = -.1923878E-1
MEAN_MOTION_DDOT = 0

CCSDS_OMM_VERS = 2.0
CREATION_DATE  = 
ORIGINATOR     = 

OBJECT_NAME    = STARLINK-35402
OBJECT_ID      = 2025-235X
CENTER_NAME    = EARTH
REF_FRAME      = TEME
TIME_SYSTEM    = UTC
MEAN_ELEMENT_THEORY = SGP/SGP4

EPOCH          = 2025-11-04T14:00:03.000384
MEAN_MOTION    = 15.69838238
ECCENTRICITY   = .00011853
INCLINATION    = 53.1592
RA_OF_ASC_NODE = 109.8340
ARG_OF_PERICENTER = 83.1631
MEAN_ANOMALY   = 88.8285

EPHEMERIS_TYPE = 0
CLASSIFICATION_TYPE = U
NORAD_CAT_ID   = 66079
ELEMENT_SET_NO = 999
REV_AT_EPOCH   = 374
BSTAR          = -.17778437E-1
MEAN_MOTION_DOT = -.1920075E-1
MEAN_MOTION_DDOT = 0

CCSDS_OMM_VERS = 2.0
CREATION_DATE  = 
ORIGINATOR     = 

OBJECT_NAME    = STARLINK-35325
OBJECT_ID      = 2025-235Y
CENTER_NAME    = EARTH
REF_FRAME      = TEME
TIME_SYSTEM    = UTC
MEAN_ELEMENT_THEORY = SGP/SGP4

EPOCH          = 2025-11-04T14:00:03.000384
MEAN_MOTION    = 15.69840511
ECCENTRICITY   = .00011801
INCLINATION    = 53.1586
RA_OF_ASC_NODE = 109.8412
ARG_OF_PERICENTER = 84.5525
MEAN_ANOMALY   = 83.6061

EPHEMERIS_TYPE = 0
CLASSIFICATION_TYPE = U
NORAD_CAT_ID   = 66080
ELEMENT_SET_NO = 999
REV_AT_EPOCH   = 374
BSTAR          = -.17826337E-1
MEAN_MOTION_DOT = -.1924817E-1
MEAN_MOTION_DDOT = 0

CCSDS_OMM_VERS = 2.0
CREATION_DATE  = 
ORIGINATOR     = 

OBJECT_NAME    = STARLINK-35403
OBJECT_ID      = 2025-235Z
CENTER_NAME    = EARTH
REF_FRAME      = TEME
TIME_SYSTEM    = UTC
MEAN_ELEMENT_THEORY = SGP/SGP4

EPOCH          = 2025-11-04T14:00:03.000384
MEAN_MOTION    = 15.69835864
ECCENTRICITY   = .00010223
INCLINATION    = 53.1595
RA_OF_ASC_NODE = 109.8269
ARG_OF_PERICENTER = 87.4013
MEAN_ANOMALY   = 88.4253

EPHEMERIS_TYPE = 0
CLASSIFICATION_TYPE = U
NORAD_CAT_ID   = 66081
ELEMENT_SET_NO = 999
REV_AT_EPOCH   = 374
BSTAR          = -.17753394E-1
MEAN_MOTION_DOT = -.1917391E-1
MEAN_MOTION_DDOT = 0

CCSDS_OMM_VERS = 2.0
CREATION_DATE  = 
ORIGINATOR     = 

OBJECT_NAME    = STARLINK-35011
OBJECT_ID      = 2025-235AA
CENTER_NAME    = EARTH
REF_FRAME      = TEME
TIME_SYSTEM    = UTC
MEAN_ELEMENT_THEORY = SGP/SGP4

EPOCH          = 2025-11-04T14:00:03.000384
MEAN_MOTION    = 15.69841187
ECCENTRICITY   = .00011606
INCLINATION    = 53.1596
RA_OF_ASC_NODE = 109.8292
ARG_OF_PERICENTER = 83.3775
MEAN_ANOMALY   = 90.5295

EPHEMERIS_TYPE = 0
CLASSIFICATION_TYPE = U
NORAD_CAT_ID   = 66082
ELEMENT_SET_NO = 999
REV_AT_EPOCH   = 374
BSTAR          = -.17815966E-1
MEAN_MOTION_DOT = -.1923857E-1
MEAN_MOTION_DDOT = 0

CCSDS_OMM_VERS = 2.0
CREATION_DATE  = 
ORIGINATOR     = 

OBJECT_NAME    = STARLINK-35291
OBJECT_ID      = 2025-235AB
CENTER_NAME    = EARTH
REF_FRAME      = TEME
TIME_SYSTEM    = UTC
MEAN_ELEMENT_THEORY = SGP/SGP4

EPOCH          = 2025-11-04T14:00:03.000384
MEAN_MOTION    = 15.69837498
ECCENTRICITY   = .00010075
INCLINATION    = 53.1595
RA_OF_ASC_NODE = 109.8219
ARG_OF_PERICENTER = 87.6777
MEAN_ANOMALY   = 90.0650

EPHEMERIS_TYPE = 0
CLASSIFICATION_TYPE = U
NORAD_CAT_ID   = 66083
ELEMENT_SET_NO = 999
REV_AT_EPOCH   = 369
BSTAR          = -.17785698E-1
MEAN_MOTION_DOT = -.1920588E-1
MEAN_MOTION_DDOT = 0

CCSDS_OMM_VERS = 2.0
CREATION_DATE  = 
ORIGINATOR     = 

OBJECT_NAME    = STARLINK-35379
OBJECT_ID      = 2025-235AC
CENTER_NAME    = EARTH
REF_FRAME      = TEME
TIME_SYSTEM    = UTC
MEAN_ELEMENT_THEORY = SGP/SGP4

EPOCH          = 2025-11-04T14:00:03.000384
MEAN_MOTION    = 15.69840875
ECCENTRICITY   = .00010958
INCLINATION    = 53.1587
RA_OF_ASC_NODE = 109.8173
ARG_OF_PERICENTER = 84.9714
MEAN_ANOMALY   = 94.6879

EPHEMERIS_TYPE = 0
CLASSIFICATION_TYPE = U
NORAD_CAT_ID   = 66084
ELEMENT_SET_NO = 999
REV_AT_EPOCH   = 374
BSTAR          = -.17834199E-1
MEAN_MOTION_DOT = -.1925533E-1
MEAN_MOTION_DDOT = 0

CCSDS_OMM_VERS = 2.0
CREATION_DATE  = 
ORIGINATOR     = 

OBJECT_NAME    = STARLINK-35370
OBJECT_ID      = 2025-235AD
CENTER_NAME    = EARTH
REF_FRAME      = TEME
TIME_SYSTEM    = UTC
MEAN_ELEMENT_THEORY = SGP/SGP4

EPOCH          = 2025-11-04T14:00:03.000384
MEAN_MOTION    = 15.69837169
ECCENTRICITY   = .0001025
INCLINATION    = 53.1595
RA_OF_ASC_NODE = 109.8129
ARG_OF_PERICENTER = 88.4654
MEAN_ANOMALY   = 93.1116

EPHEMERIS_TYPE = 0
CLASSIFICATION_TYPE = U
NORAD_CAT_ID   = 66085
ELEMENT_SET_NO = 999
REV_AT_EPOCH   = 369
BSTAR          = -.17775807E-1
MEAN_MOTION_DOT = -.1919631E-1
MEAN_MOTION_DDOT = 0

CCSDS_OMM_VERS = 2.0
CREATION_DATE  = 
ORIGINATOR     = 

OBJECT_NAME    = STARLINK-35596
OBJECT_ID      = 2025-236A
CENTER_NAME    = EARTH
REF_FRAME      = TEME
TIME_SYSTEM    = UTC
MEAN_ELEMENT_THEORY = SGP/SGP4

EPOCH          = 2025-11-04T14:00:03.000384
MEAN_MOTION    = 15.74163029
ECCENTRICITY   = .0001298
INCLINATION    = 53.1572
RA_OF_ASC_NODE = 329.5554
ARG_OF_PERICENTER = 76.1800
MEAN_ANOMALY   = 24.5364

EPHEMERIS_TYPE = 0
CLASSIFICATION_TYPE = U
NORAD_CAT_ID   = 66086
ELEMENT_SET_NO = 999
REV_AT_EPOCH   = 374
BSTAR          = .24059266E-3
MEAN_MOTION_DOT = .34712E-3
MEAN_MOTION_DDOT = 0

